*******************************************************************************
Ephemeris / WWW_USER Mon Mar 10 14:47:44 2025 Pasadena, USA      / Horizons    
*******************************************************************************
Target body name: (2018 RD5)                      {source: JPL#11}
Center body name: Earth (399)                     {source: DE441}
Center-site name: Gemini South Obs., Cerro Pachon
*******************************************************************************
Start time      : A.D. 2018-Sep-03 22:37:00.0000 UT      
Stop  time      : A.D. 2018-Sep-04 10:46:00.0000 UT      
Step-size       : 1 minutes
*******************************************************************************
Target pole/equ : undefined
Target radii    : undefined                                                    
Center geodetic : 289.2634, -30.2406227, 2.71233  {E-lon(deg),Lat(deg),Alt(km)}
Center cylindric: 289.2634,5517.21435,-3194.81213 {E-lon(deg),Dxy(km),Dz(km)}
Center pole/equ : ITRF93                          {East-longitude positive}
Center radii    : 6378.137, 6378.137, 6356.752 km {Equator_a, b, pole_c}       
Target primary  : Sun
Vis. interferer : MOON (R_eq= 1737.400) km        {source: DE441}
Rel. light bend : Sun                             {source: DE441}
Rel. lght bnd GM: 1.3271E+11 km^3/s^2                                          
Small-body perts: Yes                             {source: SB441-N16}
Atmos refraction: NO (AIRLESS)
RA format       : HMS
Time format     : CAL 
Calendar mode   : Mixed Julian/Gregorian
RTS-only print  : NO       
EOP file        : eop.250307.p250603                                           
EOP coverage    : DATA-BASED 1962-JAN-20 TO 2025-MAR-07. PREDICTS-> 2025-JUN-02
Units conversion: 1 au= 149597870.700 km, c= 299792.458 km/s, 1 day= 86400.0 s 
Table cut-offs 1: Elevation (-90.0deg=NO ),Airmass (>38.000=NO), Daylight (YES)
Table cut-offs 2: Solar elongation (  0.0,180.0=NO ),Local Hour Angle( 0.0=NO )
Table cut-offs 3: RA/DEC angular rate (     0.0=NO )                           
*******************************************************************************
Initial IAU76/J2000 heliocentric ecliptic osculating elements (au, days, deg.):
  EPOCH=  2458378.5 ! 2018-Sep-17.00 (TDB)         Residual RMS= .55339        
   EC= .2891632988519429   QR= 1.009650912138325   TP= 2458360.6433297051      
   OM= 171.0145363394364   W=  163.7983400129293   IN= 8.474307805886117       
  Equivalent ICRF heliocentric cartesian coordinates (au, au/d):
   X= 1.017757009008053E+00  Y=-8.967367621791844E-02  Z=-4.840656937149759E-02
  VX= 3.309922676318766E-03 VY= 1.832358809606965E-02 VZ= 4.854018792897502E-03
Asteroid physical parameters (km, seconds, rotational period in hours):        
   GM= n.a.                RAD= n.a.               ROTPER= n.a.                
   H= 25.9                 G= .150                 B-V= n.a.                   
                           ALBEDO= n.a.            STYP= n.a.                  
*******************************************************************************
 Date__(UT)__HR:MN     R.A._________(ICRF)_________DEC
******************************************************
$$SOE
 2018-Sep-04 06:49  m  17 27 41.459095 +37 38 11.77062
 2018-Sep-04 06:50  m  17 27 41.998299 +37 38 12.41879
 2018-Sep-04 06:51  m  17 27 42.537947 +37 38 13.06800
 2018-Sep-04 06:52  m  17 27 43.078038 +37 38 13.71827
 2018-Sep-04 06:53  m  17 27 43.618572 +37 38 14.36960
 2018-Sep-04 06:54  m  17 27 44.159548 +37 38 15.02201
 2018-Sep-04 06:55  m  17 27 44.700967 +37 38 15.67550
 2018-Sep-04 06:56  m  17 27 45.242826 +37 38 16.33010
 2018-Sep-04 06:57  m  17 27 45.785126 +37 38 16.98581
 2018-Sep-04 06:58  m  17 27 46.327866 +37 38 17.64263
 2018-Sep-04 06:59  m  17 27 46.871046 +37 38 18.30060
 2018-Sep-04 07:00  m  17 27 47.414664 +37 38 18.95970
 2018-Sep-04 07:01  m  17 27 47.958721 +37 38 19.61996
 2018-Sep-04 07:02  m  17 27 48.503215 +37 38 20.28139
 2018-Sep-04 07:03  m  17 27 49.048146 +37 38 20.94400
 2018-Sep-04 07:04  m  17 27 49.593513 +37 38 21.60779
 2018-Sep-04 07:05  m  17 27 50.139316 +37 38 22.27279
 2018-Sep-04 07:06  m  17 27 50.685554 +37 38 22.93900
 2018-Sep-04 07:07  m  17 27 51.232226 +37 38 23.60643
 2018-Sep-04 07:08  m  17 27 51.779332 +37 38 24.27509
 2018-Sep-04 07:09  m  17 27 52.326871 +37 38 24.94500
 2018-Sep-04 07:10  m  17 27 52.874842 +37 38 25.61617
 2018-Sep-04 07:11  m  17 27 53.423245 +37 38 26.28860
 2018-Sep-04 07:12  m  17 27 53.972078 +37 38 26.96231
 2018-Sep-04 07:13  m  17 27 54.521342 +37 38 27.63731
 2018-Sep-04 07:14  m  17 27 55.071036 +37 38 28.31361
 2018-Sep-04 07:15  m  17 27 55.621158 +37 38 28.99122
 2018-Sep-04 07:16  m  17 27 56.171708 +37 38 29.67015
 2018-Sep-04 07:17  m  17 27 56.722686 +37 38 30.35042
 2018-Sep-04 07:18  m  17 27 57.274090 +37 38 31.03203
 2018-Sep-04 07:19  m  17 27 57.825920 +37 38 31.71499
 2018-Sep-04 07:20  m  17 27 58.378175 +37 38 32.39932
 2018-Sep-04 07:21  m  17 27 58.930855 +37 38 33.08502
 2018-Sep-04 07:22  m  17 27 59.483958 +37 38 33.77211
 2018-Sep-04 07:23  m  17 28 00.037485 +37 38 34.46060
 2018-Sep-04 07:24  m  17 28 00.591433 +37 38 35.15050
 2018-Sep-04 07:25  m  17 28 01.145802 +37 38 35.84182
 2018-Sep-04 07:26  m  17 28 01.700593 +37 38 36.53456
 2018-Sep-04 07:27  m  17 28 02.255802 +37 38 37.22875
 2018-Sep-04 07:28  m  17 28 02.811431 +37 38 37.92439
 2018-Sep-04 07:29  m  17 28 03.367478 +37 38 38.62149
 2018-Sep-04 07:30  m  17 28 03.923942 +37 38 39.32006
 2018-Sep-04 07:31  m  17 28 04.480823 +37 38 40.02011
 2018-Sep-04 07:32  m  17 28 05.038120 +37 38 40.72166
 2018-Sep-04 07:33  m  17 28 05.595831 +37 38 41.42472
 2018-Sep-04 07:34  m  17 28 06.153956 +37 38 42.12928
 2018-Sep-04 07:35  m  17 28 06.712495 +37 38 42.83537
 2018-Sep-04 07:36  m  17 28 07.271446 +37 38 43.54300
 2018-Sep-04 07:37  m  17 28 07.830808 +37 38 44.25218
 2018-Sep-04 07:38  m  17 28 08.390581 +37 38 44.96291
 2018-Sep-04 07:39  m  17 28 08.950764 +37 38 45.67520
 2018-Sep-04 07:40  m  17 28 09.511356 +37 38 46.38907
 2018-Sep-04 07:41  m  17 28 10.072355 +37 38 47.10454
 2018-Sep-04 07:42  m  17 28 10.633762 +37 38 47.82159
 2018-Sep-04 07:43  m  17 28 11.195575 +37 38 48.54026
 2018-Sep-04 07:44  m  17 28 11.757793 +37 38 49.26054
 2018-Sep-04 07:45  m  17 28 12.320416 +37 38 49.98245
 2018-Sep-04 07:46  m  17 28 12.883442 +37 38 50.70600
 2018-Sep-04 07:47  m  17 28 13.446871 +37 38 51.43120
 2018-Sep-04 07:48  m  17 28 14.010702 +37 38 52.15806
 2018-Sep-04 07:49  m  17 28 14.574933 +37 38 52.88658
 2018-Sep-04 07:50  m  17 28 15.139564 +37 38 53.61679
 2018-Sep-04 07:51  m  17 28 15.704594 +37 38 54.34868
 2018-Sep-04 07:52  m  17 28 16.270022 +37 38 55.08227
 2018-Sep-04 07:53  m  17 28 16.835847 +37 38 55.81757
 2018-Sep-04 07:54  m  17 28 17.402068 +37 38 56.55459
 2018-Sep-04 07:55  m  17 28 17.968684 +37 38 57.29334
 2018-Sep-04 07:56  m  17 28 18.535695 +37 38 58.03382
 2018-Sep-04 07:57  m  17 28 19.103098 +37 38 58.77606
 2018-Sep-04 07:58  m  17 28 19.670893 +37 38 59.52005
 2018-Sep-04 07:59  m  17 28 20.239080 +37 39 00.26581
 2018-Sep-04 08:00  m  17 28 20.807657 +37 39 01.01335
 2018-Sep-04 08:01  m  17 28 21.376622 +37 39 01.76267
 2018-Sep-04 08:02  m  17 28 21.945977 +37 39 02.51379
 2018-Sep-04 08:03  m  17 28 22.515718 +37 39 03.26672
 2018-Sep-04 08:04  m  17 28 23.085845 +37 39 04.02147
 2018-Sep-04 08:05  m  17 28 23.656357 +37 39 04.77804
 2018-Sep-04 08:06  m  17 28 24.227254 +37 39 05.53644
 2018-Sep-04 08:07  m  17 28 24.798533 +37 39 06.29669
 2018-Sep-04 08:08  m  17 28 25.370195 +37 39 07.05880
 2018-Sep-04 08:09  m  17 28 25.942238 +37 39 07.82277
 2018-Sep-04 08:10  m  17 28 26.514660 +37 39 08.58861
 2018-Sep-04 08:11  m  17 28 27.087461 +37 39 09.35633
 2018-Sep-04 08:12  m  17 28 27.660640 +37 39 10.12595
 2018-Sep-04 08:13  m  17 28 28.234196 +37 39 10.89747
 2018-Sep-04 08:14  m  17 28 28.808127 +37 39 11.67090
 2018-Sep-04 08:15  m  17 28 29.382433 +37 39 12.44625
 2018-Sep-04 08:16  m  17 28 29.957113 +37 39 13.22352
 2018-Sep-04 08:17  m  17 28 30.532165 +37 39 14.00274
 2018-Sep-04 08:18  m  17 28 31.107588 +37 39 14.78391
 2018-Sep-04 08:19  m  17 28 31.683381 +37 39 15.56703
 2018-Sep-04 08:20  m  17 28 32.259544 +37 39 16.35211
 2018-Sep-04 08:21  m  17 28 32.836074 +37 39 17.13917
 2018-Sep-04 08:22  m  17 28 33.412972 +37 39 17.92822
 2018-Sep-04 08:23  m  17 28 33.990235 +37 39 18.71926
 2018-Sep-04 08:24  m  17 28 34.567862 +37 39 19.51230
 2018-Sep-04 08:25  m  17 28 35.145853 +37 39 20.30735
 2018-Sep-04 08:26  m  17 28 35.724207 +37 39 21.10442
 2018-Sep-04 08:27  m  17 28 36.302922 +37 39 21.90352
 2018-Sep-04 08:28  m  17 28 36.881996 +37 39 22.70466
 2018-Sep-04 08:29  m  17 28 37.461430 +37 39 23.50784
 2018-Sep-04 08:30  m  17 28 38.041221 +37 39 24.31307
 2018-Sep-04 08:31  m  17 28 38.621369 +37 39 25.12038
 2018-Sep-04 08:32  m  17 28 39.201872 +37 39 25.92975
 2018-Sep-04 08:33  m  17 28 39.782730 +37 39 26.74120
 2018-Sep-04 08:34  m  17 28 40.363940 +37 39 27.55474
 2018-Sep-04 08:35  m  17 28 40.945503 +37 39 28.37039
 2018-Sep-04 08:36  m  17 28 41.527416 +37 39 29.18813
 2018-Sep-04 08:37  m  17 28 42.109678 +37 39 30.00800
 2018-Sep-04 08:38  m  17 28 42.692289 +37 39 30.82998
 2018-Sep-04 08:39  m  17 28 43.275247 +37 39 31.65410
 2018-Sep-04 08:40  m  17 28 43.858551 +37 39 32.48036
 2018-Sep-04 08:41  m  17 28 44.442199 +37 39 33.30876
 2018-Sep-04 08:42  m  17 28 45.026191 +37 39 34.13933
 2018-Sep-04 08:43  m  17 28 45.610525 +37 39 34.97205
 2018-Sep-04 08:44  m  17 28 46.195200 +37 39 35.80696
 2018-Sep-04 08:45  m  17 28 46.780214 +37 39 36.64404
 2018-Sep-04 08:46  m  17 28 47.365567 +37 39 37.48331
 2018-Sep-04 08:47  m  17 28 47.951257 +37 39 38.32478
 2018-Sep-04 08:48  m  17 28 48.537284 +37 39 39.16846
 2018-Sep-04 08:49  m  17 28 49.123645 +37 39 40.01435
 2018-Sep-04 08:50  m  17 28 49.710339 +37 39 40.86246
 2018-Sep-04 08:51  m  17 28 50.297366 +37 39 41.71280
